{"type": "FeatureCollection", "features": [ {"type": "Feature", "properties": {"norad_id": 34610, "name": "COSMOS 2251 DEB", "group": "cosmos-2251-debris", "lat": -38.05027540036818, "lon": -126.63754284873187, "alt_km": 798.1191908131323, "timestamp": "2025-12-21T20:41:08.350486+00:00", "meta": {"OBJECT_NAME": "COSMOS 2251 DEB", "OBJECT_ID": "1993-036WF", "EPOCH": "2025-12-16T19:43:22.866816", "MEAN_MOTION": 14.07083274, "ECCENTRICITY": 0.01805005, "INCLINATION": 74.0182, "RA_OF_ASC_NODE": 255.1605, "ARG_OF_PERICENTER": 24.866, "MEAN_ANOMALY": 336.104, "EPHEMERIS_TYPE": 0, "CLASSIFICATION_TYPE": "U", "NORAD_CAT_ID": 34610, "ELEMENT_SET_NO": 999, "REV_AT_EPOCH": 85617, "BSTAR": 0.0012903668, "MEAN_MOTION_DOT": 2.479e-05, "MEAN_MOTION_DDOT": 0}, "tle": {"line1": "1 34610U 93036WF  25350.82179244  .00002479  00000+0  12904-2 0  9996", "line2": "2 34610  74.0182 255.1605 0180500  24.8660 336.1040 14.07083274856172"}}, "geometry": {"type": "Point", "coordinates": [-126.63754284873187, -38.05027540036818]}}, {"type": "Feature", "properties": {"norad_id": 34611, "name": "COSMOS 2251 DEB", "group": "cosmos-2251-debris", "lat": -73.84700845394809, "lon": -15.887832643569274, "alt_km": 681.8513297250101, "timestamp": "2025-12-21T20:41:08.350495+00:00", "meta": {"OBJECT_NAME": "COSMOS 2251 DEB", "OBJECT_ID": "1993-036WG", "EPOCH": "2025-12-21T06:32:35.736576", "MEAN_MOTION": 14.69642922, "ECCENTRICITY": 0.00218309, "INCLINATION": 74.0542, "RA_OF_ASC_NODE": 84.4511, "ARG_OF_PERICENTER": 122.9133, "MEAN_ANOMALY": 268.0383, "EPHEMERIS_TYPE": 0, "CLASSIFICATION_TYPE": "U", "NORAD_CAT_ID": 34611, "ELEMENT_SET_NO": 999, "REV_AT_EPOCH": 88516, "BSTAR": 0.0010368584, "MEAN_MOTION_DOT": 6.164e-05, "MEAN_MOTION_DDOT": 0}, "tle": {"line1": "1 34611U 93036WG  25355.27263584  .00006164  00000+0  10369-2 0  9990", "line2": "2 34611  74.0542  84.4511 0021830 122.9133 268.0383 14.69642922885160"}}, "geometry": {"type": "Point", "coordinates": [-15.887832643569274, -73.84700845394809]}}, {"type": "Feature", "properties": {"norad_id": 34613, "name": "COSMOS 2251 DEB", "group": "cosmos-2251-debris", "lat": 17.30668759212113, "lon": -92.86968283997066, "alt_km": 780.0039453348909, "timestamp": "2025-12-21T20:41:08.350504+00:00", "meta": {"OBJECT_NAME": "COSMOS 2251 DEB", "OBJECT_ID": "1993-036WJ", "EPOCH": "2025-12-21T04:27:30.553920", "MEAN_MOTION": 14.26478913, "ECCENTRICITY": 0.01105196, "INCLINATION": 73.9635, "RA_OF_ASC_NODE": 263.2159, "ARG_OF_PERICENTER": 92.8167, "MEAN_ANOMALY": 55.7481, "EPHEMERIS_TYPE": 0, "CLASSIFICATION_TYPE": "U", "NORAD_CAT_ID": 34613, "ELEMENT_SET_NO": 999, "REV_AT_EPOCH": 86583, "BSTAR": 0.00085437024, "MEAN_MOTION_DOT": 2.17e-05, "MEAN_MOTION_DDOT": 0}, "tle": {"line1": "1 34613U 93036WJ  25355.18577030  .00002170  00000+0  85437-3 0  9998", "line2": "2 34613  73.9635 263.2159 0110519  92.8167  55.7481 14.26478913865835"}}, "geometry": {"type": "Point", "coordinates": [-92.86968283997066, 17.30668759212113]}}, {"type": "Feature", "properties": {"norad_id": 34614, "name": "COSMOS 2251 DEB", "group": "cosmos-2251-debris", "lat": 5.387117653549557, "lon": -30.96782466970478, "alt_km": 734.4230350402977, "timestamp": "2025-12-21T20:41:08.350513+00:00", "meta": {"OBJECT_NAME": "COSMOS 2251 DEB", "OBJECT_ID": "1993-036WK", "EPOCH": "2025-12-18T23:21:59.727744", "MEAN_MOTION": 14.17670739, "ECCENTRICITY": 0.0197223, "INCLINATION": 73.8822, "RA_OF_ASC_NODE": 332.666, "ARG_OF_PERICENTER": 325.6345, "MEAN_ANOMALY": 63.1604, "EPHEMERIS_TYPE": 0, "CLASSIFICATION_TYPE": "U", "NORAD_CAT_ID": 34614, "ELEMENT_SET_NO": 999, "REV_AT_EPOCH": 84855, "BSTAR": 0.0046815228, "MEAN_MOTION_DOT": 0.00011531, "MEAN_MOTION_DDOT": 0}, "tle": {"line1": "1 34614U 93036WK  25352.97360796  .00011531  00000+0  46815-2 0  9999", "line2": "2 34614  73.8822 332.6660 0197223 325.6345  63.1604 14.17670739848553"}}, "geometry": {"type": "Point", "coordinates": [-30.96782466970478, 5.387117653549557]}}, {"type": "Feature", "properties": {"norad_id": 34615, "name": "COSMOS 2251 DEB", "group": "cosmos-2251-debris", "lat": -73.21598836717345, "lon": -152.47455101868118, "alt_km": 1060.8071336781577, "timestamp": "2025-12-21T20:41:08.350522+00:00", "meta": {"OBJECT_NAME": "COSMOS 2251 DEB", "OBJECT_ID": "1993-036WL", "EPOCH": "2025-12-20T18:38:01.201920", "MEAN_MOTION": 13.52204408, "ECCENTRICITY": 0.0400621, "INCLINATION": 74.0047, "RA_OF_ASC_NODE": 281.2515, "ARG_OF_PERICENTER": 186.7825, "MEAN_ANOMALY": 201.5832, "EPHEMERIS_TYPE": 0, "CLASSIFICATION_TYPE": "U", "NORAD_CAT_ID": 34615, "ELEMENT_SET_NO": 999, "REV_AT_EPOCH": 82924, "BSTAR": 5.7151311e-05, "MEAN_MOTION_DOT": 4.1e-07, "MEAN_MOTION_DDOT": 0}, "tle": {"line1": "1 34615U 93036WL  25354.77640280  .00000041  00000+0  57151-4 0  9990", "line2": "2 34615  74.0047 281.2515 0400621 186.7825 201.5832 13.52204408829242"}}, "geometry": {"type": "Point", "coordinates": [-152.47455101868118, -73.21598836717345]}}, {"type": "Feature", "properties": {"norad_id": 34619, "name": "COSMOS 2251 DEB", "group": "cosmos-2251-debris", "lat": -73.92728500274403, "lon": 85.65009911626063, "alt_km": 618.7308576158757, "timestamp": "2025-12-21T20:41:08.350531+00:00", "meta": {"OBJECT_NAME": "COSMOS 2251 DEB", "OBJECT_ID": "1993-036WQ", "EPOCH": "2025-12-19T05:10:01.742016", "MEAN_MOTION": 14.64660075, "ECCENTRICITY": 0.0094753, "INCLINATION": 74.0434, "RA_OF_ASC_NODE": 187.4955, "ARG_OF_PERICENTER": 280.8666, "MEAN_ANOMALY": 78.185, "EPHEMERIS_TYPE": 0, "CLASSIFICATION_TYPE": "U", "NORAD_CAT_ID": 34619, "ELEMENT_SET_NO": 999, "REV_AT_EPOCH": 89393, "BSTAR": 0.00014857, "MEAN_MOTION_DOT": 8.09e-06, "MEAN_MOTION_DDOT": 0}, "tle": {"line1": "1 34619U 93036WQ  25353.21529794  .00000809  00000+0  14857-3 0  9995", "line2": "2 34619  74.0434 187.4955 0094753 280.8666  78.1850 14.64660075893930"}}, "geometry": {"type": "Point", "coordinates": [85.65009911626063, -73.92728500274403]}}, {"type": "Feature", "properties": {"norad_id": 34620, "name": "COSMOS 2251 DEB", "group": "cosmos-2251-debris", "lat": -1.2186524738426154, "lon": -157.9086726245813, "alt_km": 760.8375130391696, "timestamp": "2025-12-21T20:41:08.350540+00:00", "meta": {"OBJECT_NAME": "COSMOS 2251 DEB", "OBJECT_ID": "1993-036WR", "EPOCH": "2025-12-20T06:35:10.541184", "MEAN_MOTION": 14.49205993, "ECCENTRICITY": 0.00799406, "INCLINATION": 74.0505, "RA_OF_ASC_NODE": 205.4136, "ARG_OF_PERICENTER": 240.1215, "MEAN_ANOMALY": 119.1985, "EPHEMERIS_TYPE": 0, "CLASSIFICATION_TYPE": "U", "NORAD_CAT_ID": 34620, "ELEMENT_SET_NO": 999, "REV_AT_EPOCH": 86936, "BSTAR": 0.0012727567, "MEAN_MOTION_DOT": 5.023e-05, "MEAN_MOTION_DDOT": 0}, "tle": {"line1": "1 34620U 93036WR  25354.27442756  .00005023  00000+0  12728-2 0  9993", "line2": "2 34620  74.0505 205.4136 0079940 240.1215 119.1985 14.49205993869365"}}, "geometry": {"type": "Point", "coordinates": [-157.9086726245813, -1.2186524738426154]}}, {"type": "Feature", "properties": {"norad_id": 34622, "name": "COSMOS 2251 DEB", "group": "cosmos-2251-debris", "lat": -6.059676172262788, "lon": 112.3845834461653, "alt_km": 896.8707212264226, "timestamp": "2025-12-21T20:41:08.350549+00:00", "meta": {"OBJECT_NAME": "COSMOS 2251 DEB", "OBJECT_ID": "1993-036WT", "EPOCH": "2025-12-21T03:00:07.114176", "MEAN_MOTION": 14.22076535, "ECCENTRICITY": 0.01048281, "INCLINATION": 74.0429, "RA_OF_ASC_NODE": 291.9655, "ARG_OF_PERICENTER": 12.4249, "MEAN_ANOMALY": 3.0291, "EPHEMERIS_TYPE": 0, "CLASSIFICATION_TYPE": "U", "NORAD_CAT_ID": 34622, "ELEMENT_SET_NO": 999, "REV_AT_EPOCH": 86579, "BSTAR": 0.00051946492, "MEAN_MOTION_DOT": 1.19e-05, "MEAN_MOTION_DDOT": 0}, "tle": {"line1": "1 34622U 93036WT  25355.12508234  .00001190  00000+0  51946-3 0  9991", "line2": "2 34622  74.0429 291.9655 0104828  12.4249   3.0291 14.22076535865792"}}, "geometry": {"type": "Point", "coordinates": [112.3845834461653, -6.059676172262788]}}, {"type": "Feature", "properties": {"norad_id": 34626, "name": "COSMOS 2251 DEB", "group": "cosmos-2251-debris", "lat": -35.743587514530994, "lon": 138.0361145571283, "alt_km": 678.5884118127815, "timestamp": "2025-12-21T20:41:08.350558+00:00", "meta": {"OBJECT_NAME": "COSMOS 2251 DEB", "OBJECT_ID": "1993-036WX", "EPOCH": "2025-12-21T07:20:03.192000", "MEAN_MOTION": 14.72291776, "ECCENTRICITY": 0.00269802, "INCLINATION": 74.0484, "RA_OF_ASC_NODE": 307.2376, "ARG_OF_PERICENTER": 32.9629, "MEAN_ANOMALY": 117.0243, "EPHEMERIS_TYPE": 0, "CLASSIFICATION_TYPE": "U", "NORAD_CAT_ID": 34626, "ELEMENT_SET_NO": 999, "REV_AT_EPOCH": 89270, "BSTAR": 0.00078061568, "MEAN_MOTION_DOT": 4.932e-05, "MEAN_MOTION_DDOT": 0}, "tle": {"line1": "1 34626U 93036WX  25355.30559250  .00004932  00000+0  78062-3 0  9994", "line2": "2 34626  74.0484 307.2376 0026980  32.9629 117.0243 14.72291776892704"}}, "geometry": {"type": "Point", "coordinates": [138.0361145571283, -35.743587514530994]}}, {"type": "Feature", "properties": {"norad_id": 34634, "name": "COSMOS 2251 DEB", "group": "cosmos-2251-debris", "lat": -19.47576960053357, "lon": -156.49282370185864, "alt_km": 705.2384532970409, "timestamp": "2025-12-21T20:41:08.350568+00:00", "meta": {"OBJECT_NAME": "COSMOS 2251 DEB", "OBJECT_ID": "1993-036XF", "EPOCH": "2025-12-20T13:00:49.103136", "MEAN_MOTION": 14.55677322, "ECCENTRICITY": 0.0043818, "INCLINATION": 74.0515, "RA_OF_ASC_NODE": 20.2005, "ARG_OF_PERICENTER": 125.2376, "MEAN_ANOMALY": 1.6445, "EPHEMERIS_TYPE": 0, "CLASSIFICATION_TYPE": "U", "NORAD_CAT_ID": 34634, "ELEMENT_SET_NO": 999, "REV_AT_EPOCH": 88895, "BSTAR": 0.00019363, "MEAN_MOTION_DOT": 8.28e-06, "MEAN_MOTION_DDOT": 0}, "tle": {"line1": "1 34634U 93036XF  25354.54223499  .00000828  00000+0  19363-3 0  9990", "line2": "2 34634  74.0515  20.2005 0043818 125.2376   1.6445 14.55677322888953"}}, "geometry": {"type": "Point", "coordinates": [-156.49282370185864, -19.47576960053357]}}]}